[{"OBJECT_NAME":"IRIDIUM 151","OBJECT_ID":"2017-083E","EPOCH":"2026-03-06T19:22:47.141184","MEAN_MOTION":14.34217549,"ECCENTRICITY":0.0002062,"INCLINATION":86.4015,"RA_OF_ASC_NODE":4.8397,"ARG_OF_PERICENTER":86.7903,"MEAN_ANOMALY":273.3528,"EPHEMERIS_TYPE":0,"CLASSIFICATION_TYPE":"U","NORAD_CAT_ID":43074,"ELEMENT_SET_NO":999,"REV_AT_EPOCH":42946,"BSTAR":-1.2905e-5,"MEAN_MOTION_DOT":-1.6e-7,"MEAN_MOTION_DDOT":0},{"OBJECT_NAME":"IRIDIUM 134","OBJECT_ID":"2017-083F","EPOCH":"2026-03-06T08:34:19.139808","MEAN_MOTION":14.34218086,"ECCENTRICITY":0.00020878,"INCLINATION":86.4027,"RA_OF_ASC_NODE":5.0337,"ARG_OF_PERICENTER":85.9774,"MEAN_ANOMALY":274.166,"EPHEMERIS_TYPE":0,"CLASSIFICATION_TYPE":"U","NORAD_CAT_ID":43075,"ELEMENT_SET_NO":999,"REV_AT_EPOCH":42936,"BSTAR":0.0001511596,"MEAN_MOTION_DOT":4.43e-6,"MEAN_MOTION_DDOT":0},{"OBJECT_NAME":"IRIDIUM 137","OBJECT_ID":"2017-083G","EPOCH":"2026-03-06T08:52:35.219712","MEAN_MOTION":14.34217402,"ECCENTRICITY":0.00022787,"INCLINATION":86.4017,"RA_OF_ASC_NODE":5.1195,"ARG_OF_PERICENTER":96.8407,"MEAN_ANOMALY":263.3048,"EPHEMERIS_TYPE":0,"CLASSIFICATION_TYPE":"U","NORAD_CAT_ID":43076,"ELEMENT_SET_NO":999,"REV_AT_EPOCH":42943,"BSTAR":-1.2443318e-5,"MEAN_MOTION_DOT":-1.5e-7,"MEAN_MOTION_DDOT":0},{"OBJECT_NAME":"IRIDIUM 141","OBJECT_ID":"2017-083H","EPOCH":"2026-03-06T08:43:27.667488","MEAN_MOTION":14.34221749,"ECCENTRICITY":0.00022124,"INCLINATION":86.4023,"RA_OF_ASC_NODE":4.9589,"ARG_OF_PERICENTER":82.3882,"MEAN_ANOMALY":277.7565,"EPHEMERIS_TYPE":0,"CLASSIFICATION_TYPE":"U","NORAD_CAT_ID":43077,"ELEMENT_SET_NO":999,"REV_AT_EPOCH":42943,"BSTAR":0.00011002606,"MEAN_MOTION_DOT":3.28e-6,"MEAN_MOTION_DDOT":0},{"OBJECT_NAME":"IRIDIUM 153","OBJECT_ID":"2017-083J","EPOCH":"2026-03-06T05:54:07.404192","MEAN_MOTION":14.34218186,"ECCENTRICITY":0.00020785,"INCLINATION":86.4025,"RA_OF_ASC_NODE":333.5205,"ARG_OF_PERICENTER":75.7291,"MEAN_ANOMALY":284.4136,"EPHEMERIS_TYPE":0,"CLASSIFICATION_TYPE":"U","NORAD_CAT_ID":43078,"ELEMENT_SET_NO":999,"REV_AT_EPOCH":43052,"BSTAR":0.00010842952,"MEAN_MOTION_DOT":3.23e-6,"MEAN_MOTION_DDOT":0},{"OBJECT_NAME":"IRIDIUM 131","OBJECT_ID":"2017-083K","EPOCH":"2026-03-06T18:27:59.078592","MEAN_MOTION":14.34219501,"ECCENTRICITY":0.0002304,"INCLINATION":86.4026,"RA_OF_ASC_NODE":4.9682,"ARG_OF_PERICENTER":84.8229,"MEAN_ANOMALY":275.323,"EPHEMERIS_TYPE":0,"CLASSIFICATION_TYPE":"U","NORAD_CAT_ID":43079,"ELEMENT_SET_NO":999,"REV_AT_EPOCH":42942,"BSTAR":0.00014133,"MEAN_MOTION_DOT":4.16e-6,"MEAN_MOTION_DDOT":0},{"OBJECT_NAME":"IRIDIUM 144","OBJECT_ID":"2018-030A","EPOCH":"2026-03-06T11:04:39.432000","MEAN_MOTION":14.34217746,"ECCENTRICITY":0.00020689,"INCLINATION":86.4012,"RA_OF_ASC_NODE":333.3632,"ARG_OF_PERICENTER":88.4579,"MEAN_ANOMALY":271.6854,"EPHEMERIS_TYPE":0,"CLASSIFICATION_TYPE":"U","NORAD_CAT_ID":43249,"ELEMENT_SET_NO":999,"REV_AT_EPOCH":41541,"BSTAR":9.948474e-6,"MEAN_MOTION_DOT":4.8e-7,"MEAN_MOTION_DDOT":0},{"OBJECT_NAME":"IRIDIUM 149","OBJECT_ID":"2018-030B","EPOCH":"2026-03-06T11:13:47.397216","MEAN_MOTION":14.3421764,"ECCENTRICITY":0.00020548,"INCLINATION":86.4006,"RA_OF_ASC_NODE":333.3285,"ARG_OF_PERICENTER":83.2943,"MEAN_ANOMALY":276.8487,"EPHEMERIS_TYPE":0,"CLASSIFICATION_TYPE":"U","NORAD_CAT_ID":43250,"ELEMENT_SET_NO":999,"REV_AT_EPOCH":41543,"BSTAR":-3.435716e-6,"MEAN_MOTION_DOT":1.0e-7,"MEAN_MOTION_DDOT":0},{"OBJECT_NAME":"IRIDIUM 157","OBJECT_ID":"2018-030C","EPOCH":"2026-03-06T11:41:11.321376","MEAN_MOTION":14.34218525,"ECCENTRICITY":0.00021941,"INCLINATION":86.4009,"RA_OF_ASC_NODE":333.3711,"ARG_OF_PERICENTER":85.3169,"MEAN_ANOMALY":274.8277,"EPHEMERIS_TYPE":0,"CLASSIFICATION_TYPE":"U","NORAD_CAT_ID":43251,"ELEMENT_SET_NO":999,"REV_AT_EPOCH":41541,"BSTAR":3.7359536e-5,"MEAN_MOTION_DOT":1.24e-6,"MEAN_MOTION_DDOT":0},{"OBJECT_NAME":"IRIDIUM 140","OBJECT_ID":"2018-030D","EPOCH":"2026-03-06T07:07:11.401536","MEAN_MOTION":14.34217815,"ECCENTRICITY":0.00020097,"INCLINATION":86.4013,"RA_OF_ASC_NODE":333.4639,"ARG_OF_PERICENTER":84.2887,"MEAN_ANOMALY":275.8538,"EPHEMERIS_TYPE":0,"CLASSIFICATION_TYPE":"U","NORAD_CAT_ID":43252,"ELEMENT_SET_NO":999,"REV_AT_EPOCH":41544,"BSTAR":8.702333e-6,"MEAN_MOTION_DOT":4.4e-7,"MEAN_MOTION_DDOT":0},{"OBJECT_NAME":"IRIDIUM 145","OBJECT_ID":"2018-030E","EPOCH":"2026-03-06T06:48:54.893952","MEAN_MOTION":14.34220961,"ECCENTRICITY":0.00019121,"INCLINATION":86.4012,"RA_OF_ASC_NODE":333.4417,"ARG_OF_PERICENTER":94.0663,"MEAN_ANOMALY":266.0751,"EPHEMERIS_TYPE":0,"CLASSIFICATION_TYPE":"U","NORAD_CAT_ID":43253,"ELEMENT_SET_NO":999,"REV_AT_EPOCH":41537,"BSTAR":0.00012488969,"MEAN_MOTION_DOT":3.7e-6,"MEAN_MOTION_DDOT":0},{"OBJECT_NAME":"IRIDIUM 146","OBJECT_ID":"2018-030F","EPOCH":"2026-03-06T06:21:31.343040","MEAN_MOTION":14.34214096,"ECCENTRICITY":0.00021777,"INCLINATION":86.4019,"RA_OF_ASC_NODE":333.4618,"ARG_OF_PERICENTER":89.1349,"MEAN_ANOMALY":271.0096,"EPHEMERIS_TYPE":0,"CLASSIFICATION_TYPE":"U","NORAD_CAT_ID":43254,"ELEMENT_SET_NO":999,"REV_AT_EPOCH":41538,"BSTAR":0.00010572044,"MEAN_MOTION_DOT":3.16e-6,"MEAN_MOTION_DDOT":0},{"OBJECT_NAME":"IRIDIUM 148","OBJECT_ID":"2018-030G","EPOCH":"2026-03-06T05:35:51.428832","MEAN_MOTION":14.34217942,"ECCENTRICITY":0.00021887,"INCLINATION":86.4013,"RA_OF_ASC_NODE":333.5169,"ARG_OF_PERICENTER":86.1068,"MEAN_ANOMALY":274.0378,"EPHEMERIS_TYPE":0,"CLASSIFICATION_TYPE":"U","NORAD_CAT_ID":43255,"ELEMENT_SET_NO":999,"REV_AT_EPOCH":41541,"BSTAR":4.4021975e-5,"MEAN_MOTION_DOT":1.43e-6,"MEAN_MOTION_DDOT":0},{"OBJECT_NAME":"IRIDIUM 142","OBJECT_ID":"2018-030H","EPOCH":"2026-03-06T06:30:39.348000","MEAN_MOTION":14.34217699,"ECCENTRICITY":0.0001858,"INCLINATION":86.4003,"RA_OF_ASC_NODE":333.3935,"ARG_OF_PERICENTER":93.5535,"MEAN_ANOMALY":266.5873,"EPHEMERIS_TYPE":0,"CLASSIFICATION_TYPE":"U","NORAD_CAT_ID":43256,"ELEMENT_SET_NO":999,"REV_AT_EPOCH":41538,"BSTAR":-2.119205e-6,"MEAN_MOTION_DOT":1.4e-7,"MEAN_MOTION_DDOT":0},{"OBJECT_NAME":"IRIDIUM 150","OBJECT_ID":"2018-030J","EPOCH":"2026-03-06T05:44:59.376768","MEAN_MOTION":14.34217593,"ECCENTRICITY":0.00020676,"INCLINATION":86.4014,"RA_OF_ASC_NODE":333.52,"ARG_OF_PERICENTER":85.8997,"MEAN_ANOMALY":274.2435,"EPHEMERIS_TYPE":0,"CLASSIFICATION_TYPE":"U","NORAD_CAT_ID":43257,"ELEMENT_SET_NO":999,"REV_AT_EPOCH":41540,"BSTAR":2.865847e-5,"MEAN_MOTION_DOT":1.0e-6,"MEAN_MOTION_DDOT":0},{"OBJECT_NAME":"IRIDIUM 143","OBJECT_ID":"2018-030K","EPOCH":"2026-03-06T06:58:03.367200","MEAN_MOTION":14.34218032,"ECCENTRICITY":0.00020342,"INCLINATION":86.4016,"RA_OF_ASC_NODE":333.5872,"ARG_OF_PERICENTER":89.8997,"MEAN_ANOMALY":270.2432,"EPHEMERIS_TYPE":0,"CLASSIFICATION_TYPE":"U","NORAD_CAT_ID":43258,"ELEMENT_SET_NO":999,"REV_AT_EPOCH":41534,"BSTAR":1.2067311e-5,"MEAN_MOTION_DOT":5.4e-7,"MEAN_MOTION_DDOT":0},{"OBJECT_NAME":"IRIDIUM 161","OBJECT_ID":"2018-047C","EPOCH":"2026-03-06T10:05:47.087232","MEAN_MOTION":14.43285423,"ECCENTRICITY":0.00025174,"INCLINATION":86.4507,"RA_OF_ASC_NODE":131.449,"ARG_OF_PERICENTER":91.4923,"MEAN_ANOMALY":268.6566,"EPHEMERIS_TYPE":0,"CLASSIFICATION_TYPE":"U","NORAD_CAT_ID":43478,"ELEMENT_SET_NO":999,"REV_AT_EPOCH":41031,"BSTAR":0.00012640796,"MEAN_MOTION_DOT":4.45e-6,"MEAN_MOTION_DDOT":0}]
