IRIDIUM 151             
1 43074U 17083E   26065.80749006 -.00000016  00000+0 -12905-4 0  9999
2 43074  86.4015   4.8397 0002062  86.7903 273.3528 14.34217549429463
IRIDIUM 134             
1 43075U 17083F   26065.35716597  .00000443  00000+0  15116-3 0  9997
2 43075  86.4027   5.0337 0002087  85.9774 274.1660 14.34218086429360
IRIDIUM 137             
1 43076U 17083G   26065.36985208 -.00000015  00000+0 -12443-4 0  9994
2 43076  86.4017   5.1195 0002278  96.8407 263.3048 14.34217402429438
IRIDIUM 141             
1 43077U 17083H   26065.36351467  .00000328  00000+0  11003-3 0  9994
2 43077  86.4023   4.9589 0002212  82.3882 277.7565 14.34221749429437
IRIDIUM 153             
1 43078U 17083J   26065.24591903  .00000323  00000+0  10843-3 0  9999
2 43078  86.4025 333.5205 0002078  75.7291 284.4136 14.34218186430528
IRIDIUM 131             
1 43079U 17083K   26065.76943378  .00000416  00000+0  14133-3 0  9993
2 43079  86.4026   4.9682 0002304  84.8229 275.3230 14.34219501429425
IRIDIUM 144             
1 43249U 18030A   26065.46156750  .00000048  00000+0  99485-5 0  9998
2 43249  86.4012 333.3632 0002068  88.4579 271.6854 14.34217746415412
IRIDIUM 149             
1 43250U 18030B   26065.46790969  .00000010  00000+0 -34357-5 0  9993
2 43250  86.4006 333.3285 0002054  83.2943 276.8487 14.34217640415438
IRIDIUM 157             
1 43251U 18030C   26065.48693659  .00000124  00000+0  37360-4 0  9995
2 43251  86.4009 333.3711 0002194  85.3169 274.8277 14.34218525415410
IRIDIUM 140             
1 43252U 18030D   26065.29665974  .00000044  00000+0  87023-5 0  9997
2 43252  86.4013 333.4639 0002009  84.2887 275.8538 14.34217815415441
IRIDIUM 145             
1 43253U 18030E   26065.28396868  .00000370  00000+0  12489-3 0  9994
2 43253  86.4012 333.4417 0001912  94.0663 266.0751 14.34220961415375
IRIDIUM 146             
1 43254U 18030F   26065.26494610  .00000316  00000+0  10572-3 0  9998
2 43254  86.4019 333.4618 0002177  89.1349 271.0096 14.34214096415387
IRIDIUM 148             
1 43255U 18030G   26065.23323413  .00000143  00000+0  44022-4 0  9994
2 43255  86.4013 333.5169 0002188  86.1068 274.0378 14.34217942415414
IRIDIUM 142             
1 43256U 18030H   26065.27128875  .00000014  00000+0 -21192-5 0  9996
2 43256  86.4003 333.3935 0001858  93.5535 266.5873 14.34217699415388
IRIDIUM 150             
1 43257U 18030J   26065.23957612  .00000100  00000+0  28658-4 0  9990
2 43257  86.4014 333.5200 0002067  85.8997 274.2435 14.34217593415403
IRIDIUM 143             
1 43258U 18030K   26065.29031675  .00000054  00000+0  12067-4 0  9994
2 43258  86.4016 333.5872 0002034  89.8997 270.2432 14.34218032415344
IRIDIUM 161             
1 43478U 18047C   26065.42068388  .00000445  00000+0  12641-3 0  9993
2 43478  86.4507 131.4490 0002517  91.4923 268.6566 14.43285423410317
